STARLINK-31313          
1 59088U 24041Q   26068.04005083 -.00003661  00000+0 -12358-3 0  9992
2 59088  43.0024 314.2433 0001874 256.6446 103.4196 15.27572063114174
KUIPER-00209            
1 67776U 26030N   26068.61786546  .00035298  00000+0  11963-2 0  9997
2 67776  51.8838 220.0775 0012191  59.1967 301.0215 15.30161950  5077
